ORBCOMM FM33            
1 25983U 99065D   24257.21531025  .00006290  00000+0  20901-2 0  9995
2 25983  45.0269 234.3102 0006672 100.7428 259.4172 14.38346686296234
ORBCOMM FM36            
1 25984U 99065E   24257.15887314  .00007176  00000+0  24764-2 0  9999
2 25984  45.0403 322.1979 0004187 311.4211  48.6277 14.36333440295159
ORBCOMM FM35            
1 25985U 99065F   24257.17545129  .00005577  00000+0  19602-2 0  9995
2 25985  45.0403 325.2553 0001269 116.2666 243.8313 14.35712479295146
ORBCOMM FM34            
1 25986U 99065G   24257.14773018  .00005380  00000+0  18928-2 0  9995
2 25986  45.0399 325.9367 0002441 355.6780   4.4046 14.35707751295107
ORBCOMM FM38            
1 33060U 08031A   24257.17539994  .00010989  00000+0  15096-2 0  9990
2 33060  48.4394 193.0388 0005378 290.9099  69.1239 14.78644017873706
ORBCOMM FM41            
1 33061U 08031B   24256.91486118  .00010331  00000+0  14311-2 0  9991
2 33061  48.4429 201.1972 0004583 276.0069 127.2233 14.78346543873618
ORBCOMM FM29            
1 33062U 08031C   24256.90499010  .00010696  00000+0  14816-2 0  9990
2 33062  48.4376 209.2721 0006384 274.9020 114.4051 14.78311217873476
ORBCOMM FM39            
1 33063U 08031D   24257.22533610  .00009718  00000+0  13849-2 0  9990
2 33063  48.4386 229.2762 0007333 252.1725 107.8389 14.77183292873233
