<?xml version="1.0" encoding="UTF-8"?>
<ndm xmlns:xsi="http://www.w3.org/2001/XMLSchema-instance" xsi:noNamespaceSchemaLocation="https://sanaregistry.org/r/ndmxml_unqualified/ndmxml-2.0.0-master-2.0.xsd">
<omm id="CCSDS_OMM_VERS" version="2.0">
<header><CREATION_DATE/><ORIGINATOR/></header><body><segment><metadata><OBJECT_NAME>ORBCOMM FM33</OBJECT_NAME><OBJECT_ID>1999-065D</OBJECT_ID><CENTER_NAME>EARTH</CENTER_NAME><REF_FRAME>TEME</REF_FRAME><TIME_SYSTEM>UTC</TIME_SYSTEM><MEAN_ELEMENT_THEORY>SGP4</MEAN_ELEMENT_THEORY></metadata><data><meanElements><EPOCH>2024-09-13T05:10:02.805600</EPOCH><MEAN_MOTION>14.38346686</MEAN_MOTION><ECCENTRICITY>.0006672</ECCENTRICITY><INCLINATION>45.0269</INCLINATION><RA_OF_ASC_NODE>234.3102</RA_OF_ASC_NODE><ARG_OF_PERICENTER>100.7428</ARG_OF_PERICENTER><MEAN_ANOMALY>259.4172</MEAN_ANOMALY></meanElements><tleParameters><EPHEMERIS_TYPE>0</EPHEMERIS_TYPE><CLASSIFICATION_TYPE>U</CLASSIFICATION_TYPE><NORAD_CAT_ID>25983</NORAD_CAT_ID><ELEMENT_SET_NO>999</ELEMENT_SET_NO><REV_AT_EPOCH>29623</REV_AT_EPOCH><BSTAR>.20901E-2</BSTAR><MEAN_MOTION_DOT>.629E-4</MEAN_MOTION_DOT><MEAN_MOTION_DDOT>0</MEAN_MOTION_DDOT></tleParameters></data></segment></body></omm>
<omm id="CCSDS_OMM_VERS" version="2.0">
<header><CREATION_DATE/><ORIGINATOR/></header><body><segment><metadata><OBJECT_NAME>ORBCOMM FM36</OBJECT_NAME><OBJECT_ID>1999-065E</OBJECT_ID><CENTER_NAME>EARTH</CENTER_NAME><REF_FRAME>TEME</REF_FRAME><TIME_SYSTEM>UTC</TIME_SYSTEM><MEAN_ELEMENT_THEORY>SGP4</MEAN_ELEMENT_THEORY></metadata><data><meanElements><EPOCH>2024-09-13T03:48:46.639296</EPOCH><MEAN_MOTION>14.36333440</MEAN_MOTION><ECCENTRICITY>.0004187</ECCENTRICITY><INCLINATION>45.0403</INCLINATION><RA_OF_ASC_NODE>322.1979</RA_OF_ASC_NODE><ARG_OF_PERICENTER>311.4211</ARG_OF_PERICENTER><MEAN_ANOMALY>48.6277</MEAN_ANOMALY></meanElements><tleParameters><EPHEMERIS_TYPE>0</EPHEMERIS_TYPE><CLASSIFICATION_TYPE>U</CLASSIFICATION_TYPE><NORAD_CAT_ID>25984</NORAD_CAT_ID><ELEMENT_SET_NO>999</ELEMENT_SET_NO><REV_AT_EPOCH>29515</REV_AT_EPOCH><BSTAR>.24764E-2</BSTAR><MEAN_MOTION_DOT>.7176E-4</MEAN_MOTION_DOT><MEAN_MOTION_DDOT>0</MEAN_MOTION_DDOT></tleParameters></data></segment></body></omm>
<omm id="CCSDS_OMM_VERS" version="2.0">
<header><CREATION_DATE/><ORIGINATOR/></header><body><segment><metadata><OBJECT_NAME>ORBCOMM FM35</OBJECT_NAME><OBJECT_ID>1999-065F</OBJECT_ID><CENTER_NAME>EARTH</CENTER_NAME><REF_FRAME>TEME</REF_FRAME><TIME_SYSTEM>UTC</TIME_SYSTEM><MEAN_ELEMENT_THEORY>SGP4</MEAN_ELEMENT_THEORY></metadata><data><meanElements><EPOCH>2024-09-13T04:12:38.991456</EPOCH><MEAN_MOTION>14.35712479</MEAN_MOTION><ECCENTRICITY>.0001269</ECCENTRICITY><INCLINATION>45.0403</INCLINATION><RA_OF_ASC_NODE>325.2553</RA_OF_ASC_NODE><ARG_OF_PERICENTER>116.2666</ARG_OF_PERICENTER><MEAN_ANOMALY>243.8313</MEAN_ANOMALY></meanElements><tleParameters><EPHEMERIS_TYPE>0</EPHEMERIS_TYPE><CLASSIFICATION_TYPE>U</CLASSIFICATION_TYPE><NORAD_CAT_ID>25985</NORAD_CAT_ID><ELEMENT_SET_NO>999</ELEMENT_SET_NO><REV_AT_EPOCH>29514</REV_AT_EPOCH><BSTAR>.19602E-2</BSTAR><MEAN_MOTION_DOT>.5577E-4</MEAN_MOTION_DOT><MEAN_MOTION_DDOT>0</MEAN_MOTION_DDOT></tleParameters></data></segment></body></omm>
<omm id="CCSDS_OMM_VERS" version="2.0">
<header><CREATION_DATE/><ORIGINATOR/></header><body><segment><metadata><OBJECT_NAME>ORBCOMM FM34</OBJECT_NAME><OBJECT_ID>1999-065G</OBJECT_ID><CENTER_NAME>EARTH</CENTER_NAME><REF_FRAME>TEME</REF_FRAME><TIME_SYSTEM>UTC</TIME_SYSTEM><MEAN_ELEMENT_THEORY>SGP4</MEAN_ELEMENT_THEORY></metadata><data><meanElements><EPOCH>2024-09-13T03:32:43.887552</EPOCH><MEAN_MOTION>14.35707751</MEAN_MOTION><ECCENTRICITY>.0002441</ECCENTRICITY><INCLINATION>45.0399</INCLINATION><RA_OF_ASC_NODE>325.9367</RA_OF_ASC_NODE><ARG_OF_PERICENTER>355.6780</ARG_OF_PERICENTER><MEAN_ANOMALY>4.4046</MEAN_ANOMALY></meanElements><tleParameters><EPHEMERIS_TYPE>0</EPHEMERIS_TYPE><CLASSIFICATION_TYPE>U</CLASSIFICATION_TYPE><NORAD_CAT_ID>25986</NORAD_CAT_ID><ELEMENT_SET_NO>999</ELEMENT_SET_NO><REV_AT_EPOCH>29510</REV_AT_EPOCH><BSTAR>.18928E-2</BSTAR><MEAN_MOTION_DOT>.538E-4</MEAN_MOTION_DOT><MEAN_MOTION_DDOT>0</MEAN_MOTION_DDOT></tleParameters></data></segment></body></omm>
<omm id="CCSDS_OMM_VERS" version="2.0">
<header><CREATION_DATE/><ORIGINATOR/></header><body><segment><metadata><OBJECT_NAME>ORBCOMM FM38</OBJECT_NAME><OBJECT_ID>2008-031A</OBJECT_ID><CENTER_NAME>EARTH</CENTER_NAME><REF_FRAME>TEME</REF_FRAME><TIME_SYSTEM>UTC</TIME_SYSTEM><MEAN_ELEMENT_THEORY>SGP4</MEAN_ELEMENT_THEORY></metadata><data><meanElements><EPOCH>2024-09-13T04:12:34.554816</EPOCH><MEAN_MOTION>14.78644017</MEAN_MOTION><ECCENTRICITY>.0005378</ECCENTRICITY><INCLINATION>48.4394</INCLINATION><RA_OF_ASC_NODE>193.0388</RA_OF_ASC_NODE><ARG_OF_PERICENTER>290.9099</ARG_OF_PERICENTER><MEAN_ANOMALY>69.1239</MEAN_ANOMALY></meanElements><tleParameters><EPHEMERIS_TYPE>0</EPHEMERIS_TYPE><CLASSIFICATION_TYPE>U</CLASSIFICATION_TYPE><NORAD_CAT_ID>33060</NORAD_CAT_ID><ELEMENT_SET_NO>999</ELEMENT_SET_NO><REV_AT_EPOCH>87370</REV_AT_EPOCH><BSTAR>.15096E-2</BSTAR><MEAN_MOTION_DOT>.10989E-3</MEAN_MOTION_DOT><MEAN_MOTION_DDOT>0</MEAN_MOTION_DDOT></tleParameters></data></segment></body></omm>
<omm id="CCSDS_OMM_VERS" version="2.0">
<header><CREATION_DATE/><ORIGINATOR/></header><body><segment><metadata><OBJECT_NAME>ORBCOMM FM41</OBJECT_NAME><OBJECT_ID>2008-031B</OBJECT_ID><CENTER_NAME>EARTH</CENTER_NAME><REF_FRAME>TEME</REF_FRAME><TIME_SYSTEM>UTC</TIME_SYSTEM><MEAN_ELEMENT_THEORY>SGP4</MEAN_ELEMENT_THEORY></metadata><data><meanElements><EPOCH>2024-09-12T21:57:24.005952</EPOCH><MEAN_MOTION>14.78346543</MEAN_MOTION><ECCENTRICITY>.0004583</ECCENTRICITY><INCLINATION>48.4429</INCLINATION><RA_OF_ASC_NODE>201.1972</RA_OF_ASC_NODE><ARG_OF_PERICENTER>276.0069</ARG_OF_PERICENTER><MEAN_ANOMALY>127.2233</MEAN_ANOMALY></meanElements><tleParameters><EPHEMERIS_TYPE>0</EPHEMERIS_TYPE><CLASSIFICATION_TYPE>U</CLASSIFICATION_TYPE><NORAD_CAT_ID>33061</NORAD_CAT_ID><ELEMENT_SET_NO>999</ELEMENT_SET_NO><REV_AT_EPOCH>87361</REV_AT_EPOCH><BSTAR>.14311E-2</BSTAR><MEAN_MOTION_DOT>.10331E-3</MEAN_MOTION_DOT><MEAN_MOTION_DDOT>0</MEAN_MOTION_DDOT></tleParameters></data></segment></body></omm>
<omm id="CCSDS_OMM_VERS" version="2.0">
<header><CREATION_DATE/><ORIGINATOR/></header><body><segment><metadata><OBJECT_NAME>ORBCOMM FM29</OBJECT_NAME><OBJECT_ID>2008-031C</OBJECT_ID><CENTER_NAME>EARTH</CENTER_NAME><REF_FRAME>TEME</REF_FRAME><TIME_SYSTEM>UTC</TIME_SYSTEM><MEAN_ELEMENT_THEORY>SGP4</MEAN_ELEMENT_THEORY></metadata><data><meanElements><EPOCH>2024-09-12T21:43:11.144640</EPOCH><MEAN_MOTION>14.78311217</MEAN_MOTION><ECCENTRICITY>.0006384</ECCENTRICITY><INCLINATION>48.4376</INCLINATION><RA_OF_ASC_NODE>209.2721</RA_OF_ASC_NODE><ARG_OF_PERICENTER>274.9020</ARG_OF_PERICENTER><MEAN_ANOMALY>114.4051</MEAN_ANOMALY></meanElements><tleParameters><EPHEMERIS_TYPE>0</EPHEMERIS_TYPE><CLASSIFICATION_TYPE>U</CLASSIFICATION_TYPE><NORAD_CAT_ID>33062</NORAD_CAT_ID><ELEMENT_SET_NO>999</ELEMENT_SET_NO><REV_AT_EPOCH>87347</REV_AT_EPOCH><BSTAR>.14816E-2</BSTAR><MEAN_MOTION_DOT>.10696E-3</MEAN_MOTION_DOT><MEAN_MOTION_DDOT>0</MEAN_MOTION_DDOT></tleParameters></data></segment></body></omm>
<omm id="CCSDS_OMM_VERS" version="2.0">
<header><CREATION_DATE/><ORIGINATOR/></header><body><segment><metadata><OBJECT_NAME>ORBCOMM FM39</OBJECT_NAME><OBJECT_ID>2008-031D</OBJECT_ID><CENTER_NAME>EARTH</CENTER_NAME><REF_FRAME>TEME</REF_FRAME><TIME_SYSTEM>UTC</TIME_SYSTEM><MEAN_ELEMENT_THEORY>SGP4</MEAN_ELEMENT_THEORY></metadata><data><meanElements><EPOCH>2024-09-13T05:24:29.039040</EPOCH><MEAN_MOTION>14.77183292</MEAN_MOTION><ECCENTRICITY>.0007333</ECCENTRICITY><INCLINATION>48.4386</INCLINATION><RA_OF_ASC_NODE>229.2762</RA_OF_ASC_NODE><ARG_OF_PERICENTER>252.1725</ARG_OF_PERICENTER><MEAN_ANOMALY>107.8389</MEAN_ANOMALY></meanElements><tleParameters><EPHEMERIS_TYPE>0</EPHEMERIS_TYPE><CLASSIFICATION_TYPE>U</CLASSIFICATION_TYPE><NORAD_CAT_ID>33063</NORAD_CAT_ID><ELEMENT_SET_NO>999</ELEMENT_SET_NO><REV_AT_EPOCH>87323</REV_AT_EPOCH><BSTAR>.13849E-2</BSTAR><MEAN_MOTION_DOT>.9718E-4</MEAN_MOTION_DOT><MEAN_MOTION_DDOT>0</MEAN_MOTION_DDOT></tleParameters></data></segment></body></omm>

</ndm>
